NORAD_CAT_ID,OBJECT_NAME,OBJECT_TYPE,EPOCH,MEAN_MOTION,ECCENTRICITY,INCLINATION,RA_OF_ASC_NODE,ARG_OF_PERICENTER,MEAN_ANOMALY,BSTAR,MEAN_MOTION_DOT,MEAN_MOTION_DDOT,TLE_LINE0,TLE_LINE1,TLE_LINE2,SEMIMAJOR_AXIS,PERIOD,APOGEE,PERIGEE,DECAYED
53569.0,STARLINK-4582,PAYLOAD,2024-04-10 07:30:39,15.08840221,0.0001434,53.2181,309.2831,83.7912,276.3243,3.7795e-05,3.14e-06,0.0,0 STARLINK-4582,1 53569U 22101AU  24101.31295693  .00000314  00000-0  37795-4 0  9993,2 53569  53.2181 309.2831 0001434  83.7912 276.3243 15.08840221 91680,6917.88,95.438,540.737,538.753,0.0
53569.0,STARLINK-4582,PAYLOAD,2024-04-10 20:13:44,15.08841522,0.0001395,53.2177,306.903,89.6668,270.4484,3.8078e-05,3.18e-06,0.0,0 STARLINK-4582,1 53569U 22101AU  24101.84287563  .00000318  00000-0  38078-4 0  9997,2 53569  53.2177 306.9030 0001395  89.6668 270.4484 15.08841522 91765,6917.876,95.437,540.706,538.776,0.0
53569.0,STARLINK-4582,PAYLOAD,2024-04-11 20:04:31,15.08840345,0.0001364,53.2178,302.4421,90.7444,269.3705,8.5328e-05,1.07e-05,0.0,0 STARLINK-4582,1 53569U 22101AU  24102.83647516  .00001070  00000-0  85328-4 0  9991,2 53569  53.2178 302.4421 0001364  90.7444 269.3705 15.08840345 91914,6917.879,95.438,540.688,538.801,0.0
53569.0,STARLINK-4582,PAYLOAD,2024-04-11 23:15:17,15.08840992,0.0001366,53.2177,301.8474,90.5607,269.5542,8.8072e-05,1.114e-05,0.0,0 STARLINK-4582,1 53569U 22101AU  24102.96895474  .00001114  00000-0  88072-4 0  9991,2 53569  53.2177 301.8474 0001366  90.5607 269.5542 15.08840992 91262,6917.877,95.437,540.687,538.797,0.0
53569.0,STARLINK-4582,PAYLOAD,2024-04-13 11:49:10,15.08837072,0.0001274,53.2169,295.0077,88.7989,271.3149,3.0573e-05,1.99e-06,0.0,0 STARLINK-4582,1 53569U 22101AU  24104.49248254  .00000199  00000-0  30573-4 0  9994,2 53569  53.2169 295.0077 0001274  88.7989 271.3149 15.08837072 91490,6917.889,95.438,540.636,538.873,0.0
53569.0,STARLINK-4582,PAYLOAD,2024-04-13 19:46:06,15.08835915,0.0001216,53.2175,293.5204,86.0987,274.0144,3.6918e-06,-2.29e-06,0.0,0 STARLINK-4582,1 53569U 22101AU  24104.82368457 -.00000229  00000-0  36918-5 0  9994,2 53569  53.2175 293.5204 0001216  86.0987 274.0144 15.08835915 92217,6917.893,95.438,540.599,538.917,0.0
53569.0,STARLINK-4582,PAYLOAD,2024-04-14 19:36:53,15.08838443,0.0001695,53.2182,289.061,49.7971,310.317,0.00014562,2.03e-05,0.0,0 STARLINK-4582,1 53569U 22101AU  24105.81728463  .00002030  00000-0  14562-3 0  9991,2 53569  53.2182 289.0610 0001695  49.7971 310.3170 15.08838443 91699,6917.885,95.438,540.923,538.578,0.0
53569.0,STARLINK-4582,PAYLOAD,2024-04-15 21:03:02,15.08848737,0.0001679,53.2185,284.3027,66.8759,293.241,0.00016606,2.356e-05,0.0,0 STARLINK-4582,1 53569U 22101AU  24106.87711787  .00002356  00000-0  16606-3 0  9991,2 53569  53.2185 284.3027 0001679  66.8759 293.2410 15.08848737 91859,6917.854,95.437,540.88,538.557,0.0
53569.0,STARLINK-4582,PAYLOAD,2024-04-16 11:21:31,15.0884431,0.0001241,53.2161,281.6226,75.7085,284.4045,-6.2149e-06,-3.87e-06,0.0,0 STARLINK-4582,1 53569U 22101AU  24107.47328424 -.00000387  00000-0 -62149-5 0  9999,2 53569  53.2161 281.6226 0001241  75.7085 284.4045 15.08844310 91949,6917.867,95.437,540.591,538.874,0.0
53569.0,STARLINK-4582,PAYLOAD,2024-04-16 19:18:25,15.08861085,0.000114,53.2168,280.138,78.8517,281.2604,0.00015406,2.166e-05,0.0,0 STARLINK-4582,1 53569U 22101AU  24107.80446709  .00002166  00000-0  15406-3 0  9990,2 53569  53.2168 280.1380 0001140  78.8517 281.2604 15.08861085 91992,6917.816,95.436,540.47,538.892,0.0
53569.0,STARLINK-4582,PAYLOAD,2024-04-17 11:12:18,15.08843522,0.0001187,53.2158,277.1625,78.3129,281.7997,-2.3416e-05,-6.61e-06,0.0,0 STARLINK-4582,1 53569U 22101AU  24108.46688099 -.00000661  00000-0 -23416-4 0  9994,2 53569  53.2158 277.1625 0001187  78.3129 281.7997 15.08843522 92092,6917.87,95.437,540.556,538.913,0.0
53569.0,STARLINK-4582,PAYLOAD,2024-04-17 17:33:50,15.08840235,0.0001539,53.2172,275.9786,61.202,298.9126,9.0178e-05,1.147e-05,0.0,0 STARLINK-4582,1 53569U 22101AU  24108.73183970  .00001147  00000-0  90178-4 0  9999,2 53569  53.2172 275.9786 0001539  61.2020 298.9126 15.08840235 92805,6917.88,95.438,540.809,538.68,0.0
53569.0,STARLINK-4582,PAYLOAD,2024-04-18 11:03:05,15.0883632,0.0001613,53.217,272.7083,56.2599,303.8546,4.2271e-05,3.85e-06,0.0,0 STARLINK-4582,1 53569U 22101AU  24109.46048567  .00000385  00000-0  42271-4 0  9996,2 53569  53.2170 272.7083 0001613  56.2599 303.8546 15.08836320 92246,6917.892,95.438,540.872,538.641,0.0
53569.0,STARLINK-4582,PAYLOAD,2024-04-18 17:24:38,15.08838842,0.0001686,53.217,271.5185,48.9684,311.1453,9.7051e-06,-1.34e-06,0.0,0 STARLINK-4582,1 53569U 22101AU  24109.72544589 -.00000134  00000-0  97051-5 0  9990,2 53569  53.2170 271.5185 0001686  48.9684 311.1453 15.08838842 92957,6917.884,95.438,540.915,538.583,0.0
53569.0,STARLINK-4582,PAYLOAD,2024-04-19 14:04:39,15.08839837,0.0001362,53.2185,267.6513,106.7102,253.404,6.4686e-05,7.42e-06,0.0,0 STARLINK-4582,1 53569U 22101AU  24110.58656302  .00000742  00000-0  64686-4 0  9994,2 53569  53.2185 267.6513 0001362 106.7102 253.4040 15.08839837 93083,6917.881,95.438,540.688,538.804,0.0
53569.0,STARLINK-4582,PAYLOAD,2024-04-19 17:15:24,15.08852902,0.000127,53.2186,267.0529,104.2321,255.8812,0.00011939,1.613e-05,0.0,0 STARLINK-4582,1 53569U 22101AU  24110.71903332  .00001613  00000-0  11939-3 0  9997,2 53569  53.2186 267.0529 0001270 104.2321 255.8812 15.08852902 92438,6917.841,95.437,540.585,538.827,0.0
53569.0,STARLINK-4582,PAYLOAD,2024-04-20 10:44:37,15.08866031,0.0001232,53.218,263.7821,112.3214,247.7908,0.00026798,3.983e-05,0.0,0 STARLINK-4582,1 53569U 22101AU  24111.44765387  .00003983  00000-0  26798-3 0  9995,2 53569  53.2180 263.7821 0001232 112.3214 247.7908 15.08866031 92545,6917.801,95.436,540.518,538.814,0.0
53569.0,STARLINK-4582,PAYLOAD,2024-04-20 13:55:28,15.08789712,0.0001191,53.2187,263.1914,74.273,285.8393,-0.00035983,-6.002e-05,0.0,0 STARLINK-4582,1 53569U 22101AU  24111.58019645 -.00006002  00000-0 -35983-3 0  9992,2 53569  53.2187 263.1914 0001191  74.2730 285.8393 15.08789712 93230,6918.034,95.441,540.723,539.075,0.0
53569.0,STARLINK-4582,PAYLOAD,2024-04-20 17:06:15,15.08791099,0.0001398,53.2183,262.5958,101.5308,258.5841,-0.0003512,-5.865e-05,0.0,0 STARLINK-4582,1 53569U 22101AU  24111.71267725 -.00005865  00000-0 -35120-3 0  9990,2 53569  53.2183 262.5958 0001398 101.5308 258.5841 15.08791099 92584,6918.03,95.441,540.862,538.928,0.0
53569.0,STARLINK-4582,PAYLOAD,2024-04-21 13:46:14,15.08842198,0.0001318,53.2184,258.7309,103.6311,256.4828,-4.8494e-05,-1.06e-05,0.0,0 STARLINK-4582,1 53569U 22101AU  24112.57377667 -.00001060  00000-0 -48494-4 0  9994,2 53569  53.2184 258.7309 0001318 103.6311 256.4828 15.08842198 93389,6917.874,95.437,540.65,538.827,0.0
53569.0,STARLINK-4582,PAYLOAD,2024-04-21 20:07:46,15.08836997,0.0001714,53.2173,257.5351,108.6323,251.4856,6.0818e-06,-1.91e-06,0.0,0 STARLINK-4582,1 53569U 22101AU  24112.83873547 -.00000191  00000-0  60818-5 0  9999,2 53569  53.2173 257.5351 0001714 108.6323 251.4856 15.08836997 92755,6917.89,95.438,540.94,538.569,0.0
53569.0,STARLINK-4582,PAYLOAD,2024-04-22 08:50:52,15.08814133,0.0001623,53.2169,255.1566,95.1818,264.936,0.00063599,9.841e-05,0.0,0 STARLINK-4582,1 53569U 22101AU  24113.36866763  .00009841  00000-0  63599-3 0  9997,2 53569  53.2169 255.1566 0001623  95.1818 264.9360 15.08814133 92836,6917.959,95.439,540.947,538.702,0.0
53569.0,STARLINK-4582,PAYLOAD,2024-04-22 18:23:10,15.08848366,0.0001171,53.2166,253.3718,107.3086,252.8035,0.00091626,0.00014328,0.0,0 STARLINK-4582,1 53569U 22101AU  24113.76609333  .00014328  00000-0  91626-3 0  9997,2 53569  53.2166 253.3718 0001171 107.3086 252.8035 15.08848366 92899,6917.855,95.437,540.53,538.91,0.0
53569.0,STARLINK-4582,PAYLOAD,2024-04-23 08:41:39,15.088338,0.0001053,53.2166,250.6966,113.137,246.9733,-4.4569e-05,-9.97e-06,0.0,0 STARLINK-4582,1 53569U 22101AU  24114.36226230 -.00000997  00000-0 -44569-4 0  9999,2 53569  53.2166 250.6966 0001053 113.1370 246.9733 15.08833800 92980,6917.899,95.438,540.493,539.036,0.0
53569.0,STARLINK-4582,PAYLOAD,2024-04-23 13:27:48,15.08849659,0.0002357,53.2161,249.8057,119.6106,240.5121,9.3298e-05,1.197e-05,0.0,0 STARLINK-4582,1 53569U 22101AU  24114.56097233  .00001197  00000-0  93298-4 0  9994,2 53569  53.2161 249.8057 0002357 119.6106 240.5121 15.08849659 93680,6917.851,95.437,541.346,538.085,0.0
53569.0,STARLINK-4582,PAYLOAD,2024-04-23 16:38:33,15.08862112,0.0001576,53.2165,249.21,102.6868,257.4301,0.00034103,5.147e-05,0.0,0 STARLINK-4582,1 53569U 22101AU  24114.69344781  .00005147  00000-0  34103-3 0  9999,2 53569  53.2165 249.2100 0001576 102.6868 257.4301 15.08862112 93031,6917.813,95.436,540.768,538.588,0.0
53569.0,STARLINK-4582,PAYLOAD,2024-04-24 13:18:34,15.08851115,0.0001533,53.2174,245.3426,99.7172,260.3994,-0.00014008,-2.517e-05,0.0,0 STARLINK-4582,1 53569U 22101AU  24115.55456776 -.00002517  00000-0 -14008-3 0  9995,2 53569  53.2174 245.3426 0001533  99.7172 260.3994 15.08851115 93836,6917.846,95.437,540.772,538.651,0.0
53569.0,STARLINK-4582,PAYLOAD,2024-04-24 14:53:57,15.08852032,0.0001687,53.2172,245.0453,79.5138,280.6044,-9.874e-05,-1.86e-05,0.0,0 STARLINK-4582,1 53569U 22101AU  24115.62080855 -.00001860  00000-0 -98740-4 0  9990,2 53569  53.2172 245.0453 0001687  79.5138 280.6044 15.08852032 93176,6917.844,95.437,540.876,538.542,0.0
53569.0,STARLINK-4582,PAYLOAD,2024-04-25 13:09:22,15.0883868,0.0001734,53.2171,240.8868,85.7139,274.4051,-0.00013967,-2.51e-05,0.0,0 STARLINK-4582,1 53569U 22101AU  24116.54817725 -.00002510  00000-0 -13967-3 0  9996,2 53569  53.2171 240.8868 0001734  85.7139 274.4051 15.08838680 93319,6917.884,95.438,540.949,538.55,0.0
53569.0,STARLINK-4582,PAYLOAD,2024-04-25 14:44:45,15.08838759,0.0001744,53.2171,240.5898,81.0268,279.0921,-0.00011902,-2.182e-05,0.0,0 STARLINK-4582,1 53569U 22101AU  24116.61441776 -.00002182  00000-0 -11902-3 0  9995,2 53569  53.2171 240.5898 0001744  81.0268 279.0921 15.08838759 93990,6917.884,95.438,540.956,538.543,0.0
